CUBESX-HSE 3 (RS42S)    
1 57178U 23091N   25005.13197654  .00019481  00000+0  10181-2 0  9996
2 57178  97.5869  62.6686 0015965 138.3136 221.9316 15.15813744 84026
MONITOR-3 (RS58S)       
1 57180U 23091Q   25005.08351682  .00016434  00000+0  88585-3 0  9995
2 57180  97.5862  62.2258 0016452 139.5063 220.7396 15.14746826 83992
MONITOR-4 (RS57S)       
1 57182U 23091S   25005.14962774  .00018955  00000+0  10206-2 0  9998
2 57182  97.5860  62.2528 0016487 139.9592 220.2858 15.14755632 84007
MONITOR-2 (RS39S)       
1 57184U 23091U   25005.14107487  .00011158  00000+0  65597-3 0  9994
2 57184  97.5870  61.8474 0014199 135.1333 225.1047 15.11759771 83978
SVYATOBOR 1 (RS60S)     
1 57187U 23091X   25005.12268992  .00015880  00000+0  85150-3 0  9997
2 57187  97.5865  62.9538 0013174 130.6234 229.6146 15.14985327 84049
VIZARD-METEO (RS38S)    
1 57189U 23091Z   25005.13146162  .00021331  00000+0  10484-2 0  9999
2 57189  97.5855  63.9603 0011870 125.9803 234.2532 15.18001529 84110
NANOZOND 1 (RS49S)      
1 57190U 23091AA  25005.15933862  .00039558  00000+0  15879-2 0  9997
2 57190  97.5820  65.7256 0009453 125.2943 234.9179 15.24819877 84248
POLYTECH-UNIVERSE 3 (R*)
1 57191U 23091AB  25005.14683391  .00011495  00000+0  67382-3 0  9993
2 57191  97.5837  61.4482 0018717 152.3995 207.8233 15.11793222 83961
UTMN 2 (RS27S)          
1 57203U 23091AP  25005.15640820  .00020023  00000+0  10159-2 0  9994
2 57203  97.5857  63.6157 0012339 126.8661 233.3705 15.16895776 84095
ARCCUBE 1 (RS25S)       
1 57205U 23091AR  25005.10659368  .00047551  00000+0  16897-2 0  9998
2 57205  97.5763  66.3636 0008867 125.2347 234.9724 15.28821566 84299
KUZGTU 1 (RS47S)        
1 57217U 23091AV  25005.17285533  .00020074  00000+0  10602-2 0  9996
2 57217  97.5843  62.4335 0015868 140.0009 220.2395 15.15435495 84024
SONATE-2                
1 59112U 24043Q   25004.32265570  .00025074  00000+0  92072-3 0  9992
2 59112  97.4958 133.4885 0011985 312.1217  47.9002 15.27856788 46419
MESAT1                  
1 60209U 24125G   25005.15089729  .00028861  00000+0  10463-2 0  9994
2 60209  97.2961 219.1700 0022261 337.2146  22.8104 15.28077221 28150
OOV-CUBE (TUBSAT-30)    
1 60240U 24128F   25004.89171002  .00006539  00000+0  55167-3 0  9997
2 60240  61.9966 262.4947 0032450  16.0857 344.1254 14.98682032 26819
COLIBRI-S (RS67S)       
1 61746U 24199M   25005.18227305  .00024349  00000+0  93084-3 0  9997
2 61746  97.3794 235.1764 0015038  21.9003 338.2876 15.26489860 56338
HORS 3 (RS81S)          
1 61753U 24199U   25004.92173131  .00031087  00000+0  11829-2 0  9996
2 61753  97.3766 234.8947 0013816  30.0306 330.1722 15.26610155 56292
HORS 4 (RS82S)          
1 61754U 24199V   25005.17722620  .00030025  00000+0  11323-2 0  9998
2 61754  97.3764 235.1621 0014002  29.2683 330.9338 15.26911477 56337
HORIZON (RS59S)         
1 61757U 24199Y   25005.16053944  .00037673  00000+0  13882-2 0  9994
2 61757  97.3793 235.2038 0014956  20.1567 340.0260 15.27614707 56337
SIT-2086                
1 61764U 24199AF  25005.15446407  .00031170  00000+0  11529-2 0  9993
2 61764  97.3769 235.1933 0012293  30.9802 329.2160 15.27567124 53171
MORDOVIA-IOT (RS50S)    
1 61765U 24199AG  25005.13247041  .00044634  00000+0  15870-2 0  9997
2 61765  97.3790 235.2414 0014647  17.3323 342.8414 15.28752639 53185
RUZAEVKA 390 (RS44S)    
1 61766U 24199AH  25005.13543435  .00042279  00000+0  15149-2 0  9996
2 61766  97.3789 235.2348 0014439  17.0530 343.1192 15.28516469 53182
HYPERVIEW 1G (RS66S)    
1 61772U 24199AP  25005.13770304  .00034745  00000+0  13242-2 0  9991
2 61772  97.3763 235.0620 0017969  30.9166 329.3126 15.26470217 53172
ALTAIR (RS65S)          
1 61779U 24199AW  25005.17003202  .00016396  00000+0  65991-3 0  9999
2 61779  97.3776 235.0234 0018220  31.8673 328.3663 15.24803433 56321
ASRTU-1 (AO-123)        
1 61781U 24199AY  25005.17764264  .00018954  00000+0  76653-3 0  9993
2 61781  97.3771 235.0139 0018444  31.8817 328.3533 15.24608281 53171
TUSUR GO (RS78S)        
1 61782U 24199AZ  25005.15156140  .00032917  00000+0  12677-2 0  9990
2 61782  97.3766 235.0458 0019254  30.3575 329.8774 15.26112141 53175
SAMSAT-IONOSPHERE (RS7*)
1 61784U 24199BB  25005.15715654  .00029839  00000+0  11625-2 0  9994
2 61784  97.3769 235.0379 0019018  31.0331 329.2026 15.25753095 56320
RTU MIREA 1 (RS51S)     
1 61785U 24199BC  25005.15555739  .00029863  00000+0  11605-2 0  9996
2 61785  97.3768 235.0404 0018885  30.5795 329.6540 15.25839381 53176
NOAA 15                 
1 25338U 98030A   25005.14272780  .00000548  00000+0  24330-3 0  9995
2 25338  98.5514  33.8994 0011351  94.2365 266.0113 14.26848362386236
NOAA 18                 
1 28654U 05018A   25005.18184499  .00000600  00000+0  34199-3 0  9999
2 28654  98.8582  86.3330 0013896 207.1327 152.9121 14.13477703 11795
NOAA 19                 
1 33591U 09005A   25005.16321461  .00000520  00000+0  30176-3 0  9997
2 33591  99.0213  68.8489 0014673  83.6933 276.5909 14.13251587820154
METOP-B                 
1 38771U 12049A   25005.18693624  .00000492  00000+0  24507-3 0  9998
2 38771  98.6028  63.5971 0001850  93.6062 266.5327 14.21403708638246
SARAL                   
1 39086U 13009A   25004.93810433  .00000482  00000+0  19348-3 0  9992
2 39086  98.5485 193.3226 0002793  63.6234 296.5236 14.32626802619966
METOP-C                 
1 43689U 18087A   25005.15664307  .00000483  00000+0  24056-3 0  9992
2 43689  98.6983  67.7942 0000957 177.6182 182.5000 14.21513964319817
ANGELS                  
1 44876U 19092D   25005.06875549  .00037506  00000+0  11484-2 0  9996
2 44876  97.4633 200.6610 0008466 335.0988  24.9845 15.33687390280229
OTB-3-GAZELLE           
1 54023U 22127A   25004.79948373  .00000489  00000+0  16076-3 0  9992
2 54023  98.3572   0.8236 0013010 348.3908  11.6980 14.42368740118182
EOS-6 (OCEANSAT-3)      
1 54361U 22158A   25005.14043233  .00001432  00000+0  40543-3 0  9997
2 54361  98.3533 105.4705 0001276 107.2142 252.9190 14.47031386111476
BEIDOU-2 IGSO-1 (C06)   
1 36828U 10036A   25004.25797365 -.00000072  00000+0  00000+0 0  9990
2 36828  54.2660 167.7436 0043647 206.1799 290.5743  1.00272015 52920
BEIDOU-2 G4 (C04)       
1 37210U 10057A   25004.85056735 -.00000099  00000+0  00000+0 0  9993
2 37210   2.3358  70.3336 0009352 191.7413 308.8409  1.00270446 51993
BEIDOU-2 IGSO-2 (C07)   
1 37256U 10068A   25004.69682830 -.00000193  00000+0  00000+0 0  9993
2 37256  48.5076 278.3601 0039452 215.2280 329.1049  1.00288234 51489
BEIDOU-2 IGSO-3 (C08)   
1 37384U 11013A   25004.55347538 -.00000164  00000+0  00000+0 0  9992
2 37384  61.6444  45.1732 0030169 184.1536 179.9220  1.00258050 50366
BEIDOU-2 IGSO-4 (C09)   
1 37763U 11038A   25004.90955925  .00000048  00000+0  00000+0 0  9994
2 37763  54.5706 170.3918 0131708 228.4705 129.1207  1.00264923 49341
BEIDOU-2 IGSO-5 (C10)   
1 37948U 11073A   25004.68909253 -.00000150  00000+0  00000+0 0  9991
2 37948  48.6432 278.0577 0101594 220.8719 308.9246  1.00286513 47835
BEIDOU-2 G5 (C05)       
1 38091U 12008A   25004.90191375  .00000070  00000+0  00000+0 0  9993
2 38091   2.2567  71.1432 0012965 232.1379 184.8526  1.00270315 47074
BEIDOU-2 M3 (C11)       
1 38250U 12018A   25004.28952387 -.00000062  00000+0  00000+0 0  9992
2 38250  56.1952 322.6356 0024615 270.7292  88.9914  1.86233502 86443
BEIDOU-2 M4 (C12)       
1 38251U 12018B   25004.22033207 -.00000061  00000+0  00000+0 0  9997
2 38251  56.1003 321.8942 0015576 275.0997  84.7256  1.86231963 86092
BEIDOU-2 M6 (C14)       
1 38775U 12050B   25003.93017231 -.00000015  00000+0  00000+0 0  9999
2 38775  56.0788  80.4626 0011850 335.5791  24.4185  1.86230834 83459
BEIDOU-2 G6 (C02)       
1 38953U 12059A   25004.90695282 -.00000163  00000+0  00000+0 0  9996
2 38953   3.0749  78.8728 0008423 288.5389 147.8267  1.00272665 44612
BEIDOU-3S IGSO-1S (C31) 
1 40549U 15019A   25004.81568294 -.00000175  00000+0  00000+0 0  9994
2 40549  50.1969 301.8024 0034287 198.0920 353.3912  1.00258847 35778
BEIDOU-3S M2S (C58)     
1 40748U 15037A   25004.42145635 -.00000062  00000+0  00000+0 0  9997
2 40748  55.3259 320.1820 0011999 266.9616  92.9059  1.86228832 64278
BEIDOU-3S M1S (C57)     
1 40749U 15037B   25004.15807678 -.00000061  00000+0  00000+0 0  9999
2 40749  55.3288 320.1777 0004627 332.7341  27.2461  1.86227425 64274
BEIDOU-3S IGSO-2S (C56) 
1 40938U 15053A   25004.68606586 -.00000111  00000+0  00000+0 0  9996
2 40938  50.0415 265.0465 0051596 187.9273 353.6288  1.00259516 34058
BEIDOU-2 IGSO-6 (C13)   
1 41434U 16021A   25004.55251969 -.00000151  00000+0  00000+0 0  9995
2 41434  59.4732  43.3213 0055237 227.6736 129.3176  1.00275255 32178
BEIDOU-2 G7 (C03)       
1 41586U 16037A   25004.91225255 -.00000340  00000+0  00000+0 0  9999
2 41586   1.8628  67.7667 0007994 341.1695 134.7582  1.00268022  1594
BEIDOU-3 M1 (C19)       
1 43001U 17069A   25004.23294219 -.00000017  00000+0  00000+0 0  9991
2 43001  56.2280  80.5752 0010063 296.7133  63.2369  1.86231010 48756
BEIDOU-3 M2 (C20)       
1 43002U 17069B   25003.63364098 -.00000014  00000+0  00000+0 0  9995
2 43002  56.2272  80.6311 0007262 319.9004  40.0997  1.86230834 48733
BEIDOU-3 M7 (C27)       
1 43107U 18003A   25004.45474566 -.00000064  00000+0  00000+0 0  9998
2 43107  54.7845 320.6834 0003148  53.7020 306.3317  1.86232212 47505
BEIDOU-3 M8 (C28)       
1 43108U 18003B   25003.32293400 -.00000060  00000+0  00000+0 0  9996
2 43108  54.7783 320.7069 0004727 276.0897  83.8597  1.86230733 47495
BEIDOU-3 M4 (C22)       
1 43207U 18018A   25003.22717217 -.00000012  00000+0  00000+0 0  9995
2 43207  56.1860  80.6910 0004296 349.2879  10.7565  1.86230945 46878
BEIDOU-3 M3 (C21)       
1 43208U 18018B   25004.36765216 -.00000018  00000+0  00000+0 0  9990
2 43208  56.1864  80.6572 0007491 307.0540  52.9303  1.86231107 46895
